start=new Date('2021-08-24T00:00:00.000Z').valueOf();
sats=[{"NORAD_CAT_ID":"47595","EPHEMERIS_TYPE":"0","ARG_OF_PERICENTER":"87.6912","MEAN_ELEMENT_THEORY":"SGP4","APOAPSIS":"547.742","BSTAR":"0.00004137200000","ECCENTRICITY":"0.00007420","REV_AT_EPOCH":"3045","REF_FRAME":"TEME","TLE_LINE2":"2 47595  53.0567 289.4374 0000742  87.6912 272.4162 15.06395083 30457","PERIAPSIS":"546.715","SITE":"AFETR","PERIOD":"95.592","RCS_SIZE":"LARGE","MEAN_MOTION":"15.06395083","DECAY_DATE":null,"ELEMENT_SET_NO":"999","TIME_SYSTEM":"UTC","INCLINATION":"53.0567","SEMIMAJOR_AXIS":"6925.364","EPOCH":"2021-08-23T15:03:18.103968","MEAN_MOTION_DDOT":"0.0000000000000","FILE":"3102124","COUNTRY_CODE":"US","CENTER_NAME":"EARTH","MEAN_ANOMALY":"272.4162","LAUNCH_DATE":"2021-02-04","OBJECT_TYPE":"PAYLOAD","TLE_LINE1":"1 47595U 21009AZ  21235.62729287  .00000335  00000-0  41372-4 0  9990","GP_ID":"183331415","MEAN_MOTION_DOT":"0.00000335","OBJECT_NAME":"STARLINK-2000","RA_OF_ASC_NODE":"289.4374","CLASSIFICATION_TYPE":"U","OBJECT_ID":"2021-009AZ"},{"SITE":"AFETR","PERIAPSIS":"546.445","RCS_SIZE":"LARGE","PERIOD":"95.592","TIME_SYSTEM":"UTC","ELEMENT_SET_NO":"999","DECAY_DATE":null,"MEAN_MOTION":"15.06400308","EPOCH":"2021-08-23T19:55:12.815616","SEMIMAJOR_AXIS":"6925.348","INCLINATION":"53.0555","NORAD_CAT_ID":"47596","BSTAR":"-0.00008178300000","APOAPSIS":"547.980","MEAN_ELEMENT_THEORY":"SGP4","ARG_OF_PERICENTER":"67.8233","EPHEMERIS_TYPE":"0","REV_AT_EPOCH":"3048","ECCENTRICITY":"0.00011080","TLE_LINE2":"2 47596  53.0555 288.5279 0001108  67.8233 292.2873 15.06400308 30481","REF_FRAME":"TEME","MEAN_MOTION_DOT":"-0.00001499","GP_ID":"183330163","RA_OF_ASC_NODE":"288.5279","OBJECT_NAME":"STARLINK-2001","CLASSIFICATION_TYPE":"U","OBJECT_ID":"2021-009BA","COUNTRY_CODE":"US","FILE":"3102124","MEAN_MOTION_DDOT":"0.0000000000000","CENTER_NAME":"EARTH","MEAN_ANOMALY":"292.2873","TLE_LINE1":"1 47596U 21009BA  21235.83000944 -.00001499  00000-0 -81783-4 0  9990","OBJECT_TYPE":"PAYLOAD","LAUNCH_DATE":"2021-02-04"},{"OBJECT_NAME":"STARLINK-2002","RA_OF_ASC_NODE":"289.7543","GP_ID":"183308095","MEAN_MOTION_DOT":"0.00000428","OBJECT_ID":"2021-009BB","CLASSIFICATION_TYPE":"U","CENTER_NAME":"EARTH","FILE":"3102075","MEAN_MOTION_DDOT":"0.0000000000000","COUNTRY_CODE":"US","OBJECT_TYPE":"PAYLOAD","LAUNCH_DATE":"2021-02-04","TLE_LINE1":"1 47597U 21009BB  21235.55724972  .00000428  00000-0  47601-4 0  9994","MEAN_ANOMALY":"282.8397","RCS_SIZE":"LARGE","PERIOD":"95.592","PERIAPSIS":"546.898","SITE":"AFETR","INCLINATION":"53.0555","EPOCH":"2021-08-23T13:22:26.375808","SEMIMAJOR_AXIS":"6925.358","ELEMENT_SET_NO":"999","DECAY_DATE":null,"MEAN_MOTION":"15.06396912","TIME_SYSTEM":"UTC","MEAN_ELEMENT_THEORY":"SGP4","ARG_OF_PERICENTER":"77.2645","EPHEMERIS_TYPE":"0","BSTAR":"0.00004760100000","APOAPSIS":"547.548","NORAD_CAT_ID":"47597","REF_FRAME":"TEME","TLE_LINE2":"2 47597  53.0555 289.7543 0000469  77.2645 282.8397 15.06396912 31044","ECCENTRICITY":"0.00004690","REV_AT_EPOCH":"3104"},{"ECCENTRICITY":"0.00004060","REV_AT_EPOCH":"3090","REF_FRAME":"TEME","TLE_LINE2":"2 47598  53.0827 258.6844 0000406  54.5933 305.5094 15.06393311 30906","NORAD_CAT_ID":"47598","MEAN_ELEMENT_THEORY":"SGP4","ARG_OF_PERICENTER":"54.5933","EPHEMERIS_TYPE":"0","BSTAR":"0.00003206900000","APOAPSIS":"547.515","ELEMENT_SET_NO":"999","DECAY_DATE":null,"MEAN_MOTION":"15.06393311","TIME_SYSTEM":"UTC","INCLINATION":"53.0827","EPOCH":"2021-08-23T18:23:39.362784","SEMIMAJOR_AXIS":"6925.369","PERIAPSIS":"546.953","SITE":"AFETR","RCS_SIZE":"LARGE","PERIOD":"95.593","MEAN_ANOMALY":"305.5094","OBJECT_TYPE":"PAYLOAD","LAUNCH_DATE":"2021-02-04","TLE_LINE1":"1 47598U 21009BC  21235.76642781  .00000197  00000-0  32069-4 0  9990","FILE":"3102124","MEAN_MOTION_DDOT":"0.0000000000000","COUNTRY_CODE":"US","CENTER_NAME":"EARTH","CLASSIFICATION_TYPE":"U","OBJECT_ID":"2021-009BC","GP_ID":"183330664","MEAN_MOTION_DOT":"0.00000197","OBJECT_NAME":"STARLINK-2003","RA_OF_ASC_NODE":"258.6844"},{"CLASSIFICATION_TYPE":"U","OBJECT_ID":"2021-009BD","MEAN_MOTION_DOT":"0.00000578","GP_ID":"183330915","RA_OF_ASC_NODE":"248.8439","OBJECT_NAME":"STARLINK-2004","MEAN_ANOMALY":"319.4550","TLE_LINE1":"1 47599U 21009BD  21235.75628716  .00000578  00000-0  57693-4 0  9995","OBJECT_TYPE":"PAYLOAD","LAUNCH_DATE":"2021-02-04","COUNTRY_CODE":"US","FILE":"3102124","MEAN_MOTION_DDOT":"0.0000000000000","CENTER_NAME":"EARTH","TIME_SYSTEM":"UTC","ELEMENT_SET_NO":"999","DECAY_DATE":null,"MEAN_MOTION":"15.06399027","EPOCH":"2021-08-23T18:09:03.210624","SEMIMAJOR_AXIS":"6925.352","INCLINATION":"53.0537","SITE":"AFETR","PERIAPSIS":"546.766","RCS_SIZE":"LARGE","PERIOD":"95.592","REV_AT_EPOCH":"3103","ECCENTRICITY":"0.00006510","TLE_LINE2":"2 47599  53.0537 248.8439 0000651  40.6487 319.4550 15.06399027 31034","REF_FRAME":"TEME","NORAD_CAT_ID":"47599","BSTAR":"0.00005769300000","APOAPSIS":"547.667","MEAN_ELEMENT_THEORY":"SGP4","ARG_OF_PERICENTER":"40.6487","EPHEMERIS_TYPE":"0"},{"GP_ID":"183303720","MEAN_MOTION_DOT":"0.00000761","OBJECT_NAME":"STARLINK-2005","RA_OF_ASC_NODE":"250.1438","CLASSIFICATION_TYPE":"U","OBJECT_ID":"2021-009BE","FILE":"3101910","MEAN_MOTION_DDOT":"0.0000000000000","COUNTRY_CODE":"US","CENTER_NAME":"EARTH","MEAN_ANOMALY":"347.0761","OBJECT_TYPE":"PAYLOAD","LAUNCH_DATE":"2021-02-04","TLE_LINE1":"1 47600U 21009BE  21235.45309536  .00000761  00000-0  70120-4 0  9995","PERIAPSIS":"540.519","SITE":"AFETR","RCS_SIZE":"LARGE","PERIOD":"95.591","ELEMENT_SET_NO":"999","MEAN_MOTION":"15.06410878","DECAY_DATE":null,"TIME_SYSTEM":"UTC","INCLINATION":"53.0725","EPOCH":"2021-08-23T10:52:27.439104","SEMIMAJOR_AXIS":"6925.315","NORAD_CAT_ID":"47600","MEAN_ELEMENT_THEORY":"SGP4","ARG_OF_PERICENTER":"13.0476","EPHEMERIS_TYPE":"0","BSTAR":"0.00007012000000","APOAPSIS":"553.841","ECCENTRICITY":"0.00096180","REV_AT_EPOCH":"3099","REF_FRAME":"TEME","TLE_LINE2":"2 47600  53.0725 250.1438 0009618  13.0476 347.0761 15.06410878 30998"},{"CENTER_NAME":"EARTH","COUNTRY_CODE":"US","MEAN_MOTION_DDOT":"0.0000000000000","FILE":"3102124","TLE_LINE1":"1 47601U 21009BF  21235.75996289 -.00009903  00000-0 -64618-3 0  9999","LAUNCH_DATE":"2021-02-04","OBJECT_TYPE":"PAYLOAD","MEAN_ANOMALY":"10.3016","RA_OF_ASC_NODE":"248.8281","OBJECT_NAME":"STARLINK-2006","MEAN_MOTION_DOT":"-0.00009903","GP_ID":"183329913","OBJECT_ID":"2021-009BF","CLASSIFICATION_TYPE":"U","APOAPSIS":"547.387","BSTAR":"-0.00064618000000","EPHEMERIS_TYPE":"0","MEAN_ELEMENT_THEORY":"SGP4","ARG_OF_PERICENTER":"349.7964","NORAD_CAT_ID":"47601","TLE_LINE2":"2 47601  53.0547 248.8281 0000427 349.7964  10.3016 15.06439855 31036","REF_FRAME":"TEME","REV_AT_EPOCH":"3103","ECCENTRICITY":"0.00004270","PERIOD":"95.590","RCS_SIZE":"LARGE","SITE":"AFETR","PERIAPSIS":"546.796","SEMIMAJOR_AXIS":"6925.226","EPOCH":"2021-08-23T18:14:20.793696","INCLINATION":"53.0547","TIME_SYSTEM":"UTC","DECAY_DATE":null,"MEAN_MOTION":"15.06439855","ELEMENT_SET_NO":"999"},{"ECCENTRICITY":"0.00001510","REV_AT_EPOCH":"3091","REF_FRAME":"TEME","TLE_LINE2":"2 47602  53.0502 258.1616 0000151  40.4555 319.6445 15.06385916 30914","NORAD_CAT_ID":"47602","MEAN_ELEMENT_THEORY":"SGP4","ARG_OF_PERICENTER":"40.4555","EPHEMERIS_TYPE":"0","BSTAR":"-0.00008866400000","APOAPSIS":"547.361","ELEMENT_SET_NO":"999","MEAN_MOTION":"15.06385916","DECAY_DATE":null,"TIME_SYSTEM":"UTC","INCLINATION":"53.0502","EPOCH":"2021-08-23T21:55:57.923904","SEMIMAJOR_AXIS":"6925.392","PERIAPSIS":"547.152","SITE":"AFETR","RCS_SIZE":"LARGE","PERIOD":"95.593","MEAN_ANOMALY":"319.6445","OBJECT_TYPE":"PAYLOAD","LAUNCH_DATE":"2021-02-04","TLE_LINE1":"1 47602U 21009BG  21235.91386486 -.00001601  00000-0 -88664-4 0  9995","FILE":"3102124","MEAN_MOTION_DDOT":"0.0000000000000","COUNTRY_CODE":"US","CENTER_NAME":"EARTH","CLASSIFICATION_TYPE":"U","OBJECT_ID":"2021-009BG","GP_ID":"183331165","MEAN_MOTION_DOT":"-0.00001601","OBJECT_NAME":"STARLINK-2007","RA_OF_ASC_NODE":"258.1616"},{"ELEMENT_SET_NO":"999","MEAN_MOTION":"15.06391878","DECAY_DATE":null,"TIME_SYSTEM":"UTC","INCLINATION":"53.0526","EPOCH":"2021-08-23T20:37:40.399968","SEMIMAJOR_AXIS":"6925.373","PERIAPSIS":"546.732","SITE":"AFETR","RCS_SIZE":"LARGE","PERIOD":"95.593","ECCENTRICITY":"0.00007320","REV_AT_EPOCH":"3048","REF_FRAME":"TEME","TLE_LINE2":"2 47603  53.0526 288.3847 0000732  94.5297 265.5776 15.06391878 30482","NORAD_CAT_ID":"47603","ARG_OF_PERICENTER":"94.5297","MEAN_ELEMENT_THEORY":"SGP4","EPHEMERIS_TYPE":"0","BSTAR":"-0.00005720000000","APOAPSIS":"547.745","CLASSIFICATION_TYPE":"U","OBJECT_ID":"2021-009BH","GP_ID":"183331416","MEAN_MOTION_DOT":"-0.00001133","OBJECT_NAME":"STARLINK-2008","RA_OF_ASC_NODE":"288.3847","MEAN_ANOMALY":"265.5776","OBJECT_TYPE":"PAYLOAD","LAUNCH_DATE":"2021-02-04","TLE_LINE1":"1 47603U 21009BH  21235.85949537 -.00001133  00000-0 -57200-4 0  9993","FILE":"3102124","MEAN_MOTION_DDOT":"0.0000000000000","COUNTRY_CODE":"US","CENTER_NAME":"EARTH"},{"INCLINATION":"53.0556","SEMIMAJOR_AXIS":"6925.341","EPOCH":"2021-08-23T18:55:28.535808","MEAN_MOTION":"15.06402502","DECAY_DATE":null,"ELEMENT_SET_NO":"999","TIME_SYSTEM":"UTC","PERIOD":"95.592","RCS_SIZE":"LARGE","PERIAPSIS":"547.064","SITE":"AFETR","REF_FRAME":"TEME","TLE_LINE2":"2 47604  53.0556 258.7125 0000205   0.5754 359.5235 15.06402502 30904","ECCENTRICITY":"0.00002050","REV_AT_EPOCH":"3090","EPHEMERIS_TYPE":"0","MEAN_ELEMENT_THEORY":"SGP4","ARG_OF_PERICENTER":"0.5754","APOAPSIS":"547.348","BSTAR":"0.00005670700000","NORAD_CAT_ID":"47604","OBJECT_ID":"2021-009BJ","CLASSIFICATION_TYPE":"U","OBJECT_NAME":"STARLINK-2021","RA_OF_ASC_NODE":"258.7125","GP_ID":"183330164","MEAN_MOTION_DOT":"0.00000564","LAUNCH_DATE":"2021-02-04","OBJECT_TYPE":"PAYLOAD","TLE_LINE1":"1 47604U 21009BJ  21235.78852472  .00000564  00000-0  56707-4 0  9993","MEAN_ANOMALY":"359.5235","CENTER_NAME":"EARTH","MEAN_MOTION_DDOT":"0.0000000000000","FILE":"3102124","COUNTRY_CODE":"US"}];
